CCSDS_OMM_VERS = 2.0
CREATION_DATE  = 
ORIGINATOR     = 

OBJECT_NAME    = IDEFIX & ARIANE 42P R/B
OBJECT_ID      = 2002-021B
CENTER_NAME    = EARTH
REF_FRAME      = TEME
TIME_SYSTEM    = UTC
MEAN_ELEMENT_THEORY = SGP/SGP4

EPOCH          = 2025-12-26T20:20:32.431776
MEAN_MOTION    = 14.30960435
ECCENTRICITY   = .0012693
INCLINATION    = 98.5804
RA_OF_ASC_NODE = 295.3566
ARG_OF_PERICENTER = 45.5080
MEAN_ANOMALY   = 314.7138

EPHEMERIS_TYPE = 0
CLASSIFICATION_TYPE = U
NORAD_CAT_ID   = 27422
ELEMENT_SET_NO = 999
REV_AT_EPOCH   = 23360
BSTAR          = .14702568E-3
MEAN_MOTION_DOT = .343E-5
MEAN_MOTION_DDOT = 0

CCSDS_OMM_VERS = 2.0
CREATION_DATE  = 
ORIGINATOR     = 

OBJECT_NAME    = AQUA
OBJECT_ID      = 2002-022A
CENTER_NAME    = EARTH
REF_FRAME      = TEME
TIME_SYSTEM    = UTC
MEAN_ELEMENT_THEORY = SGP/SGP4

EPOCH          = 2025-12-24T19:18:33.414624
MEAN_MOTION    = 14.61757572
ECCENTRICITY   = .00018094
INCLINATION    = 98.4055
RA_OF_ASC_NODE = 319.8810
ARG_OF_PERICENTER = 102.1365
MEAN_ANOMALY   = 317.5475

EPHEMERIS_TYPE = 0
CLASSIFICATION_TYPE = U
NORAD_CAT_ID   = 27424
ELEMENT_SET_NO = 999
REV_AT_EPOCH   = 25779
BSTAR          = .19560508E-3
MEAN_MOTION_DOT = .926E-5
MEAN_MOTION_DDOT = 0

CCSDS_OMM_VERS = 2.0
CREATION_DATE  = 
ORIGINATOR     = 

OBJECT_NAME    = CZ-4B R/B
OBJECT_ID      = 2002-024C
CENTER_NAME    = EARTH
REF_FRAME      = TEME
TIME_SYSTEM    = UTC
MEAN_ELEMENT_THEORY = SGP/SGP4

EPOCH          = 2025-12-27T00:07:52.995936
MEAN_MOTION    = 14.14530780
ECCENTRICITY   = .00494319
INCLINATION    = 98.8979
RA_OF_ASC_NODE = 49.7261
ARG_OF_PERICENTER = 228.6395
MEAN_ANOMALY   = 196.7225

EPHEMERIS_TYPE = 0
CLASSIFICATION_TYPE = U
NORAD_CAT_ID   = 27432
ELEMENT_SET_NO = 999
REV_AT_EPOCH   = 21896
BSTAR          = .47040366E-4
MEAN_MOTION_DOT = .46E-6
MEAN_MOTION_DDOT = 0

CCSDS_OMM_VERS = 2.0
CREATION_DATE  = 
ORIGINATOR     = 

OBJECT_NAME    = MIDORI II (ADEOS-II)
OBJECT_ID      = 2002-056A
CENTER_NAME    = EARTH
REF_FRAME      = TEME
TIME_SYSTEM    = UTC
MEAN_ELEMENT_THEORY = SGP/SGP4

EPOCH          = 2025-12-26T20:34:14.628864
MEAN_MOTION    = 14.29215280
ECCENTRICITY   = .00008972
INCLINATION    = 98.7656
RA_OF_ASC_NODE = 313.8888
ARG_OF_PERICENTER = 145.2130
MEAN_ANOMALY   = 214.9111

EPHEMERIS_TYPE = 0
CLASSIFICATION_TYPE = U
NORAD_CAT_ID   = 27597
ELEMENT_SET_NO = 999
REV_AT_EPOCH   = 19989
BSTAR          = .15180135E-3
MEAN_MOTION_DOT = .34E-5
MEAN_MOTION_DDOT = 0

CCSDS_OMM_VERS = 2.0
CREATION_DATE  = 
ORIGINATOR     = 

OBJECT_NAME    = H-2A R/B
OBJECT_ID      = 2002-056E
CENTER_NAME    = EARTH
REF_FRAME      = TEME
TIME_SYSTEM    = UTC
MEAN_ELEMENT_THEORY = SGP/SGP4

EPOCH          = 2025-12-26T22:03:56.176416
MEAN_MOTION    = 14.33688828
ECCENTRICITY   = .00707966
INCLINATION    = 98.3086
RA_OF_ASC_NODE = 319.1130
ARG_OF_PERICENTER = 19.3907
MEAN_ANOMALY   = 49.0746

EPHEMERIS_TYPE = 0
CLASSIFICATION_TYPE = U
NORAD_CAT_ID   = 27601
ELEMENT_SET_NO = 999
REV_AT_EPOCH   = 20368
BSTAR          = .18808537E-3
MEAN_MOTION_DOT = .495E-5
MEAN_MOTION_DDOT = 0

CCSDS_OMM_VERS = 2.0
CREATION_DATE  = 
ORIGINATOR     = 

OBJECT_NAME    = CZ-4B R/B
OBJECT_ID      = 2003-049C
CENTER_NAME    = EARTH
REF_FRAME      = TEME
TIME_SYSTEM    = UTC
MEAN_ELEMENT_THEORY = SGP/SGP4

EPOCH          = 2025-12-26T23:15:32.101920
MEAN_MOTION    = 14.54923302
ECCENTRICITY   = .00493869
INCLINATION    = 98.6799
RA_OF_ASC_NODE = 348.0712
ARG_OF_PERICENTER = 93.5315
MEAN_ANOMALY   = 267.1531

EPHEMERIS_TYPE = 0
CLASSIFICATION_TYPE = U
NORAD_CAT_ID   = 28059
ELEMENT_SET_NO = 999
REV_AT_EPOCH   = 17602
BSTAR          = .13324454E-3
MEAN_MOTION_DOT = .531E-5
MEAN_MOTION_DDOT = 0

CCSDS_OMM_VERS = 2.0
CREATION_DATE  = 
ORIGINATOR     = 

OBJECT_NAME    = CZ-2C R/B
OBJECT_ID      = 2004-012C
CENTER_NAME    = EARTH
REF_FRAME      = TEME
TIME_SYSTEM    = UTC
MEAN_ELEMENT_THEORY = SGP/SGP4

EPOCH          = 2025-12-26T16:39:54.785376
MEAN_MOTION    = 15.56562706
ECCENTRICITY   = .00166366
INCLINATION    = 97.7395
RA_OF_ASC_NODE = 54.4770
ARG_OF_PERICENTER = 216.1735
MEAN_ANOMALY   = 143.8395

EPHEMERIS_TYPE = 0
CLASSIFICATION_TYPE = U
NORAD_CAT_ID   = 28222
ELEMENT_SET_NO = 999
REV_AT_EPOCH   = 19289
BSTAR          = .57533451E-3
MEAN_MOTION_DOT = .41139E-3
MEAN_MOTION_DDOT = 0

CCSDS_OMM_VERS = 2.0
CREATION_DATE  = 
ORIGINATOR     = 

OBJECT_NAME    = SL-16 R/B
OBJECT_ID      = 2004-021B
CENTER_NAME    = EARTH
REF_FRAME      = TEME
TIME_SYSTEM    = UTC
MEAN_ELEMENT_THEORY = SGP/SGP4

EPOCH          = 2025-12-26T11:33:10.281600
MEAN_MOTION    = 14.14580389
ECCENTRICITY   = .0004538
INCLINATION    = 71.0004
RA_OF_ASC_NODE = 26.1276
ARG_OF_PERICENTER = 176.8054
MEAN_ANOMALY   = 183.3098

EPHEMERIS_TYPE = 0
CLASSIFICATION_TYPE = U
NORAD_CAT_ID   = 28353
ELEMENT_SET_NO = 999
REV_AT_EPOCH   = 11248
BSTAR          = .13503E-3
MEAN_MOTION_DOT = .212E-5
MEAN_MOTION_DDOT = 0

CCSDS_OMM_VERS = 2.0
CREATION_DATE  = 
ORIGINATOR     = 

OBJECT_NAME    = CZ-4B R/B
OBJECT_ID      = 2004-035C
CENTER_NAME    = EARTH
REF_FRAME      = TEME
TIME_SYSTEM    = UTC
MEAN_ELEMENT_THEORY = SGP/SGP4

EPOCH          = 2025-12-26T23:21:46.579392
MEAN_MOTION    = 15.27604853
ECCENTRICITY   = .00318556
INCLINATION    = 97.3597
RA_OF_ASC_NODE = 31.1282
ARG_OF_PERICENTER = 224.5771
MEAN_ANOMALY   = 135.2906

EPHEMERIS_TYPE = 0
CLASSIFICATION_TYPE = U
NORAD_CAT_ID   = 28415
ELEMENT_SET_NO = 999
REV_AT_EPOCH   = 16880
BSTAR          = .3746969E-3
MEAN_MOTION_DOT = .10193E-3
MEAN_MOTION_DDOT = 0

CCSDS_OMM_VERS = 2.0
CREATION_DATE  = 
ORIGINATOR     = 

OBJECT_NAME    = CZ-2C R/B
OBJECT_ID      = 2004-046B
CENTER_NAME    = EARTH
REF_FRAME      = TEME
TIME_SYSTEM    = UTC
MEAN_ELEMENT_THEORY = SGP/SGP4

EPOCH          = 2025-12-26T16:51:20.998368
MEAN_MOTION    = 14.26949181
ECCENTRICITY   = .01398082
INCLINATION    = 98.1997
RA_OF_ASC_NODE = 275.2130
ARG_OF_PERICENTER = 11.2264
MEAN_ANOMALY   = 349.1983

EPHEMERIS_TYPE = 0
CLASSIFICATION_TYPE = U
NORAD_CAT_ID   = 28480
ELEMENT_SET_NO = 999
REV_AT_EPOCH   = 9809
BSTAR          = .13342497E-3
MEAN_MOTION_DOT = .318E-5
MEAN_MOTION_DDOT = 0

CCSDS_OMM_VERS = 2.0
CREATION_DATE  = 
ORIGINATOR     = 

OBJECT_NAME    = ARIANE 5 R/B
OBJECT_ID      = 2004-049H
CENTER_NAME    = EARTH
REF_FRAME      = TEME
TIME_SYSTEM    = UTC
MEAN_ELEMENT_THEORY = SGP/SGP4

EPOCH          = 2025-12-26T22:29:23.516736
MEAN_MOTION    = 14.85049801
ECCENTRICITY   = .00835666
INCLINATION    = 98.2530
RA_OF_ASC_NODE = 161.7283
ARG_OF_PERICENTER = 226.3455
MEAN_ANOMALY   = 133.0810

EPHEMERIS_TYPE = 0
CLASSIFICATION_TYPE = U
NORAD_CAT_ID   = 28499
ELEMENT_SET_NO = 999
REV_AT_EPOCH   = 13499
BSTAR          = .17827106E-3
MEAN_MOTION_DOT = .1555E-4
MEAN_MOTION_DDOT = 0

CCSDS_OMM_VERS = 2.0
CREATION_DATE  = 
ORIGINATOR     = 

OBJECT_NAME    = CZ-2D R/B
OBJECT_ID      = 2005-024B
CENTER_NAME    = EARTH
REF_FRAME      = TEME
TIME_SYSTEM    = UTC
MEAN_ELEMENT_THEORY = SGP/SGP4

EPOCH          = 2025-12-26T22:57:14.086656
MEAN_MOTION    = 15.54028021
ECCENTRICITY   = .0003323
INCLINATION    = 97.3631
RA_OF_ASC_NODE = 8.7836
ARG_OF_PERICENTER = 304.3469
MEAN_ANOMALY   = 55.7470

EPHEMERIS_TYPE = 0
CLASSIFICATION_TYPE = U
NORAD_CAT_ID   = 28738
ELEMENT_SET_NO = 999
REV_AT_EPOCH   = 12846
BSTAR          = .57662427E-3
MEAN_MOTION_DOT = .3734E-3
MEAN_MOTION_DDOT = 0

